{
  "links" : {
    "next" : "https://api.nasa.gov/neo/rest/v1/feed?start_date=2014-02-23&end_date=2014-02-23&detailed=true&api_key=t0TVs3DtDT2H8Oy2Zy8m2eVrNsAVKAexjcZXUckd",
    "prev" : "https://api.nasa.gov/neo/rest/v1/feed?start_date=2014-02-21&end_date=2014-02-21&detailed=true&api_key=t0TVs3DtDT2H8Oy2Zy8m2eVrNsAVKAexjcZXUckd",
    "self" : "https://api.nasa.gov/neo/rest/v1/feed?start_date=2014-02-22&end_date=2014-02-22&detailed=true&api_key=t0TVs3DtDT2H8Oy2Zy8m2eVrNsAVKAexjcZXUckd"
  },
  "element_count" : 8,
  "near_earth_objects" : {
    "2014-02-22" : [ {
      "links" : {
        "self" : "https://api.nasa.gov/neo/rest/v1/neo/2065909?api_key=t0TVs3DtDT2H8Oy2Zy8m2eVrNsAVKAexjcZXUckd"
      },
      "neo_reference_id" : "2065909",
      "name" : "65909 (1998 FH12)",
      "nasa_jpl_url" : "http://ssd.jpl.nasa.gov/sbdb.cgi?sstr=2065909",
      "absolute_magnitude_h" : 19.2,
      "estimated_diameter" : {
        "kilometers" : {
          "estimated_diameter_min" : 0.3841978911,
          "estimated_diameter_max" : 0.8590926012
        },
        "meters" : {
          "estimated_diameter_min" : 384.1978910643,
          "estimated_diameter_max" : 859.0926012318
        },
        "miles" : {
          "estimated_diameter_min" : 0.2387294278,
          "estimated_diameter_max" : 0.5338152287
        },
        "feet" : {
          "estimated_diameter_min" : 1260.4918089193,
          "estimated_diameter_max" : 2818.5453698252
        }
      },
      "is_potentially_hazardous_asteroid" : true,
      "close_approach_data" : [ {
        "close_approach_date" : "2014-02-22",
        "epoch_date_close_approach" : 1393056000000,
        "relative_velocity" : {
          "kilometers_per_second" : "10.2524729341",
          "kilometers_per_hour" : "36908.9025628212",
          "miles_per_hour" : "22933.7567063263"
        },
        "miss_distance" : {
          "astronomical" : "0.3472408145",
          "lunar" : "135.076675415",
          "kilometers" : "51946484",
          "miles" : "32278050"
        },
        "orbiting_body" : "Earth"
      } ],
      "orbital_data" : {
        "orbit_id" : "79",
        "orbit_determination_date" : "2017-04-06 09:28:54",
        "orbit_uncertainty" : "0",
        "minimum_orbit_intersection" : ".0128834",
        "jupiter_tisserand_invariant" : "5.538",
        "epoch_osculation" : "2458000.5",
        "eccentricity" : ".5398258734009305",
        "semi_major_axis" : "1.091105354255674",
        "inclination" : "3.559532996748471",
        "ascending_node_longitude" : "108.6336067246379",
        "orbital_period" : "416.2923760154814",
        "perihelion_distance" : ".5020984534221733",
        "perihelion_argument" : "284.4565745265057",
        "aphelion_distance" : "1.680112255089175",
        "perihelion_time" : "2457875.040090891271",
        "mean_anomaly" : "108.4948221042195",
        "mean_motion" : ".8647768269160232",
        "equinox" : "J2000"
      }
    }, {
      "links" : {
        "self" : "https://api.nasa.gov/neo/rest/v1/neo/2382745?api_key=t0TVs3DtDT2H8Oy2Zy8m2eVrNsAVKAexjcZXUckd"
      },
      "neo_reference_id" : "2382745",
      "name" : "382745 (2003 CC)",
      "nasa_jpl_url" : "http://ssd.jpl.nasa.gov/sbdb.cgi?sstr=2382745",
      "absolute_magnitude_h" : 20.3,
      "estimated_diameter" : {
        "kilometers" : {
          "estimated_diameter_min" : 0.2315021222,
          "estimated_diameter_max" : 0.5176544822
        },
        "meters" : {
          "estimated_diameter_min" : 231.5021222103,
          "estimated_diameter_max" : 517.6544821978
        },
        "miles" : {
          "estimated_diameter_min" : 0.1438487052,
          "estimated_diameter_max" : 0.3216554833
        },
        "feet" : {
          "estimated_diameter_min" : 759.5214226325,
          "estimated_diameter_max" : 1698.3415313737
        }
      },
      "is_potentially_hazardous_asteroid" : true,
      "close_approach_data" : [ {
        "close_approach_date" : "2014-02-22",
        "epoch_date_close_approach" : 1393056000000,
        "relative_velocity" : {
          "kilometers_per_second" : "5.602077332",
          "kilometers_per_hour" : "20167.4783951296",
          "miles_per_hour" : "12531.2867839071"
        },
        "miss_distance" : {
          "astronomical" : "0.4841767898",
          "lunar" : "188.3447723389",
          "kilometers" : "72431816",
          "miles" : "45007044"
        },
        "orbiting_body" : "Earth"
      } ],
      "orbital_data" : {
        "orbit_id" : "50",
        "orbit_determination_date" : "2017-04-06 09:22:13",
        "orbit_uncertainty" : "0",
        "minimum_orbit_intersection" : ".0361452",
        "jupiter_tisserand_invariant" : "4.482",
        "epoch_osculation" : "2458000.5",
        "eccentricity" : ".3268860094667629",
        "semi_major_axis" : "1.500428387623457",
        "inclination" : "2.323961816739914",
        "ascending_node_longitude" : "136.3376919071937",
        "orbital_period" : "671.30724653551",
        "perihelion_distance" : "1.009959339502576",
        "perihelion_argument" : "103.1657198787001",
        "aphelion_distance" : "1.990897435744339",
        "perihelion_time" : "2458166.290925890344",
        "mean_anomaly" : "271.0917785730075",
        "mean_motion" : ".536267114436634",
        "equinox" : "J2000"
      }
    }, {
      "links" : {
        "self" : "https://api.nasa.gov/neo/rest/v1/neo/2385252?api_key=t0TVs3DtDT2H8Oy2Zy8m2eVrNsAVKAexjcZXUckd"
      },
      "neo_reference_id" : "2385252",
      "name" : "385252 (2001 EB18)",
      "nasa_jpl_url" : "http://ssd.jpl.nasa.gov/sbdb.cgi?sstr=2385252",
      "absolute_magnitude_h" : 19.3,
      "estimated_diameter" : {
        "kilometers" : {
          "estimated_diameter_min" : 0.3669061375,
          "estimated_diameter_max" : 0.8204270649
        },
        "meters" : {
          "estimated_diameter_min" : 366.9061375314,
          "estimated_diameter_max" : 820.4270648822
        },
        "miles" : {
          "estimated_diameter_min" : 0.2279848336,
          "estimated_diameter_max" : 0.5097895857
        },
        "feet" : {
          "estimated_diameter_min" : 1203.7603322587,
          "estimated_diameter_max" : 2691.6899315481
        }
      },
      "is_potentially_hazardous_asteroid" : true,
      "close_approach_data" : [ {
        "close_approach_date" : "2014-02-22",
        "epoch_date_close_approach" : 1393056000000,
        "relative_velocity" : {
          "kilometers_per_second" : "26.32716935",
          "kilometers_per_hour" : "94777.809659847",
          "miles_per_hour" : "58891.2451189199"
        },
        "miss_distance" : {
          "astronomical" : "0.1160559701",
          "lunar" : "45.1457748413",
          "kilometers" : "17361726",
          "miles" : "10788077"
        },
        "orbiting_body" : "Earth"
      } ],
      "orbital_data" : {
        "orbit_id" : "29",
        "orbit_determination_date" : "2017-04-06 09:22:12",
        "orbit_uncertainty" : "0",
        "minimum_orbit_intersection" : ".0289041",
        "jupiter_tisserand_invariant" : "5.509",
        "epoch_osculation" : "2458000.5",
        "eccentricity" : ".1836939533965696",
        "semi_major_axis" : "1.052973998611236",
        "inclination" : "50.06224641263285",
        "ascending_node_longitude" : "155.4809431198817",
        "orbital_period" : "394.6616230640835",
        "perihelion_distance" : ".859549041982544",
        "perihelion_argument" : "101.9155473600335",
        "aphelion_distance" : "1.246398955239928",
        "perihelion_time" : "2457978.719960687710",
        "mean_anomaly" : "19.86718164170532",
        "mean_motion" : ".9121738191948414",
        "equinox" : "J2000"
      }
    } ]
  }
}